{
  "norad_id": 64764,
  "name": "STARLINK-34261",
  "history": [
    {
      "epoch": "2026-03-28T21:45:57.962304Z",
      "apogee_km": 476.909471414363,
      "perigee_km": 473.4608796956245,
      "latitude_deg": 2.0071999060611276e-05,
      "longitude_deg": 0.6989674357064444,
      "height_km": 476.0074284901546,
      "semi_major_axis_km": 6853.322175554994,
      "eccentricity": 0.0002516,
      "inclination_deg": 53.16,
      "raan_deg": 153.5111,
      "arg_perigee_deg": 87.5399,
      "mean_anomaly_deg": 272.589,
      "mean_motion_rev_day": 15.30210012
    },
    {
      "epoch": "2026-03-29T21:16:45.824736Z",
      "apogee_km": 476.7240275900858,
      "perigee_km": 473.6578486705657,
      "latitude_deg": -5.795022101715158e-05,
      "longitude_deg": 2.482426202674586,
      "height_km": 476.0105432045804,
      "semi_major_axis_km": 6853.3279381303255,
      "eccentricity": 0.0002237,
      "inclination_deg": 53.16,
      "raan_deg": 148.9597,
      "arg_perigee_deg": 87.1174,
      "mean_anomaly_deg": 273.0082,
      "mean_motion_rev_day": 15.30208082
    },
    {
      "epoch": "2026-03-29T21:16:45.825600Z",
      "apogee_km": 476.72368492368787,
      "perigee_km": 473.6581913369628,
      "latitude_deg": -5.334264209112788e-05,
      "longitude_deg": 2.4824260256549886,
      "height_km": 476.0105604364017,
      "semi_major_axis_km": 6853.3279381303255,
      "eccentricity": 0.00022365,
      "inclination_deg": 53.16,
      "raan_deg": 148.9597,
      "arg_perigee_deg": 87.1174,
      "mean_anomaly_deg": 273.0082,
      "mean_motion_rev_day": 15.30208082
    },
    {
      "epoch": "2026-03-30T12:57:17.798112Z",
      "apogee_km": 476.35809308802345,
      "perigee_km": 474.0781189113586,
      "latitude_deg": -2.3637038641625457e-05,
      "longitude_deg": 123.67385816137211,
      "height_km": 475.9986411028444,
      "semi_major_axis_km": 6853.355105999691,
      "eccentricity": 0.00016634,
      "inclination_deg": 53.16,
      "raan_deg": 145.9281,
      "arg_perigee_deg": 84.1088,
      "mean_anomaly_deg": 276.0102,
      "mean_motion_rev_day": 15.30198983
    },
    {
      "epoch": "2026-03-30T20:47:33.848736Z",
      "apogee_km": 476.48504426584896,
      "perigee_km": 473.9353249792821,
      "latitude_deg": 1.1341790979613495e-05,
      "longitude_deg": 4.265720326352631,
      "height_km": 476.0898776872566,
      "semi_major_axis_km": 6853.347184622566,
      "eccentricity": 0.00018602,
      "inclination_deg": 53.16,
      "raan_deg": 144.4087,
      "arg_perigee_deg": 89.2113,
      "mean_anomaly_deg": 270.9101,
      "mean_motion_rev_day": 15.30201636
    },
    {
      "epoch": "2026-03-31T12:28:05.602656Z",
      "apogee_km": 475.8718976632863,
      "perigee_km": 474.54152658188923,
      "latitude_deg": 3.1839570479029967e-05,
      "longitude_deg": 125.45665909755334,
      "height_km": 476.209392288529,
      "semi_major_axis_km": 6853.343712122587,
      "eccentricity": 9.706e-05,
      "inclination_deg": 53.1604,
      "raan_deg": 141.3757,
      "arg_perigee_deg": 99.0078,
      "mean_anomaly_deg": 261.1033,
      "mean_motion_rev_day": 15.30202799
    },
    {
      "epoch": "2026-04-01T19:49:09.693696Z",
      "apogee_km": 476.443889848857,
      "perigee_km": 473.9643510314827,
      "latitude_deg": -5.576291966481231e-05,
      "longitude_deg": 7.834204099737695,
      "height_km": 475.9189153485117,
      "semi_major_axis_km": 6853.34112044017,
      "eccentricity": 0.0001809,
      "inclination_deg": 53.1584,
      "raan_deg": 135.3079,
      "arg_perigee_deg": 81.5401,
      "mean_anomaly_deg": 278.5804,
      "mean_motion_rev_day": 15.30203667
    },
    {
      "epoch": "2026-04-02T19:19:57.398016Z",
      "apogee_km": 476.6978337297187,
      "perigee_km": 473.63454427030047,
      "latitude_deg": 1.535671023586185e-05,
      "longitude_deg": 9.618034954057629,
      "height_km": 475.87510180696245,
      "semi_major_axis_km": 6853.303189000009,
      "eccentricity": 0.00022349,
      "inclination_deg": 53.1568,
      "raan_deg": 130.7561,
      "arg_perigee_deg": 82.9697,
      "mean_anomaly_deg": 277.1558,
      "mean_motion_rev_day": 15.30216371
    },
    {
      "epoch": "2026-04-03T09:26:26.198592Z",
      "apogee_km": 476.35207285171145,
      "perigee_km": 474.20160865675916,
      "latitude_deg": -2.4569387007082134e-05,
      "longitude_deg": 154.68800793134292,
      "height_km": 476.21873963021284,
      "semi_major_axis_km": 6853.413840754235,
      "eccentricity": 0.00015689,
      "inclination_deg": 53.1565,
      "raan_deg": 128.0255,
      "arg_perigee_deg": 92.3783,
      "mean_anomaly_deg": 267.7397,
      "mean_motion_rev_day": 15.30179312
    },
    {
      "epoch": "2026-04-04T07:23:13.180416Z",
      "apogee_km": 476.0678203367743,
      "perigee_km": 474.2607418549742,
      "latitude_deg": 2.0628941533506697e-05,
      "longitude_deg": -179.65812228565483,
      "height_km": 475.73985669988133,
      "semi_major_axis_km": 6853.3012810958735,
      "eccentricity": 0.00013184,
      "inclination_deg": 53.1565,
      "raan_deg": 123.7764,
      "arg_perigee_deg": 69.1096,
      "mean_anomaly_deg": 291.0046,
      "mean_motion_rev_day": 15.3021701
    },
    {
      "epoch": "2026-04-05T11:36:08.878176Z",
      "apogee_km": 476.2169541290432,
      "perigee_km": 474.10887907469623,
      "latitude_deg": 2.1541386290352393e-05,
      "longitude_deg": 110.49483462665509,
      "height_km": 476.41530580888394,
      "semi_major_axis_km": 6853.299916601869,
      "eccentricity": 0.0001538,
      "inclination_deg": 53.1569,
      "raan_deg": 118.3202,
      "arg_perigee_deg": 109.6761,
      "mean_anomaly_deg": 250.4406,
      "mean_motion_rev_day": 15.30217467
    },
    {
      "epoch": "2026-04-05T17:52:21.420768Z",
      "apogee_km": 476.03815498052063,
      "perigee_km": 474.246707737163,
      "latitude_deg": 7.170895212361297e-05,
      "longitude_deg": 14.967904798305325,
      "height_km": 476.1039015950476,
      "semi_major_axis_km": 6853.279431358842,
      "eccentricity": 0.0001307,
      "inclination_deg": 53.1577,
      "raan_deg": 117.103,
      "arg_perigee_deg": 94.0775,
      "mean_anomaly_deg": 266.0376,
      "mean_motion_rev_day": 15.30224328
    },
    {
      "epoch": "2026-04-06T06:24:46.655424Z",
      "apogee_km": 475.9119671155049,
      "perigee_km": 474.4191807488505,
      "latitude_deg": -4.994310960049536e-06,
      "longitude_deg": -176.08201145904252,
      "height_km": 475.8675674163651,
      "semi_major_axis_km": 6853.302573932177,
      "eccentricity": 0.00010891,
      "inclination_deg": 53.1577,
      "raan_deg": 114.6733,
      "arg_perigee_deg": 74.7645,
      "mean_anomaly_deg": 285.3476,
      "mean_motion_rev_day": 15.30216577
    },
    {
      "epoch": "2026-04-07T10:37:44.241888Z",
      "apogee_km": 476.040710918699,
      "perigee_km": 474.3428672444925,
      "latitude_deg": -4.359187403327655e-05,
      "longitude_deg": 114.06382327666277,
      "height_km": 476.0571204478769,
      "semi_major_axis_km": 6853.3287890815955,
      "eccentricity": 0.00012387,
      "inclination_deg": 53.159,
      "raan_deg": 109.2179,
      "arg_perigee_deg": 87.7931,
      "mean_anomaly_deg": 272.3211,
      "mean_motion_rev_day": 15.30207797
    },
    {
      "epoch": "2026-04-08T10:08:32.379936Z",
      "apogee_km": 476.13646734035683,
      "perigee_km": 474.2777033575285,
      "latitude_deg": 3.068340876732374e-06,
      "longitude_deg": 115.84612004151982,
      "height_km": 476.0654859822417,
      "semi_major_axis_km": 6853.344085348942,
      "eccentricity": 0.00013561,
      "inclination_deg": 53.1595,
      "raan_deg": 104.6664,
      "arg_perigee_deg": 87.5638,
      "mean_anomaly_deg": 272.5518,
      "mean_motion_rev_day": 15.30202674
    },
    {
      "epoch": "2026-04-09T06:31:13.888128Z",
      "apogee_km": 475.9110003295946,
      "perigee_km": 474.45782205756495,
      "latitude_deg": -1.607423336922686e-05,
      "longitude_deg": 165.3920496050682,
      "height_km": 476.07100273159375,
      "semi_major_axis_km": 6853.3214111935795,
      "eccentricity": 0.00010602,
      "inclination_deg": 53.1603,
      "raan_deg": 100.7222,
      "arg_perigee_deg": 89.0689,
      "mean_anomaly_deg": 271.0433,
      "mean_motion_rev_day": 15.30210268
    },
    {
      "epoch": "2026-04-10T06:02:01.925088Z",
      "apogee_km": 476.2364122722538,
      "perigee_km": 474.10914491697804,
      "latitude_deg": -5.263625578708262e-06,
      "longitude_deg": 167.17634223265839,
      "height_km": 475.89404785798445,
      "semi_major_axis_km": 6853.309778594616,
      "eccentricity": 0.0001552,
      "inclination_deg": 53.1604,
      "raan_deg": 96.1723,
      "arg_perigee_deg": 80.4483,
      "mean_anomaly_deg": 279.6693,
      "mean_motion_rev_day": 15.30214164
    },
    {
      "epoch": "2026-04-11T16:31:12.107712Z",
      "apogee_km": 475.66409573185956,
      "perigee_km": 474.71011301653016,
      "latitude_deg": -1.1790002129575197e-05,
      "longitude_deg": 1.7922105722436186,
      "height_km": 476.1303701595173,
      "semi_major_axis_km": 6853.324104374195,
      "eccentricity": 6.96e-05,
      "inclination_deg": 53.1601,
      "raan_deg": 89.4969,
      "arg_perigee_deg": 95.3419,
      "mean_anomaly_deg": 264.7661,
      "mean_motion_rev_day": 15.30209366
    }
  ]
}